{
"type": "FeatureCollection",
"crs": { "type": "name", "properties": { "name": "urn:ogc:def:crs:EPSG::3857" } },
"features": [
{ "type": "Feature", "properties": { "gid": 60, "id": "B006", "name": "St James and All Souls", "loc": "Salford", "dean": "B", "p_num": 3 }, "geometry": { "type": "MultiPolygon", "coordinates": [ [ [ [ -254124.451406490523368, 7072273.933583526872098, 50.492731326259673 ], [ -254234.334875907225069, 7072336.037371728569269, 50.494036016054451 ], [ -254910.500595336285187, 7072500.951476410962641, 50.501345251686871 ], [ -254954.917072253447259, 7072274.794054452329874, 50.501043362542987 ], [ -255014.13904139137594, 7072284.521122767589986, 50.501667831093073 ], [ -255090.257261627470143, 7071922.591826156713068, 50.501234393566847 ], [ -255138.594232270290377, 7071933.418919579125941, 50.501753619872034 ], [ -255226.759269123227568, 7071613.381375377066433, 50.501578249037266 ], [ -255347.440729183872463, 7071562.112971563823521, 50.502615817822516 ], [ -255505.102524132584222, 7071433.129790916107595, 50.503766248002648 ], [ -255681.855611755599966, 7071337.590816457755864, 50.505217913538218 ], [ -256054.486475522455294, 7071184.708405327983201, 50.508438036777079 ], [ -256341.123032570641953, 7071117.825614353641868, 50.511082098819315 ], [ -256646.86201425048057, 7071065.17638648673892, 50.513963594101369 ], [ -257965.419119387399405, 7072135.39899299480021, 50.530667129904032 ], [ -258576.908214613766177, 7072345.596160959452391, 50.537463178858161 ], [ -258842.051148474391084, 7072345.598600665107369, 50.540108745917678 ], [ -258851.611322154174559, 7072615.510433060117066, 50.54109316226095 ], [ -258357.152407516812673, 7073019.192411025054753, 50.537488294765353 ], [ -258352.376801305799745, 7073222.229066184721887, 50.538108623586595 ], [ -258412.088576002890477, 7074003.331616327166557, 50.541271567344666 ], [ -258071.888472490827553, 7074011.697356789372861, 50.537904230877757 ], [ -257923.61865006244625, 7074060.659152765758336, 50.536585228517652 ], [ -257626.228630142955808, 7074328.180658581666648, 50.534495109692216 ], [ -257485.298154674819671, 7074447.612145911902189, 50.5334802120924 ], [ -257330.029728791880189, 7074533.608420517295599, 50.532212259247899 ], [ -257184.334779135184363, 7074571.816811942495406, 50.530882920138538 ], [ -256806.917177284951322, 7074626.772103009745479, 50.527294236235321 ], [ -256651.648751427477691, 7074614.815505742095411, 50.525704166851938 ], [ -256513.111645050579682, 7074586.149683950468898, 50.524226231500506 ], [ -256246.891082665155409, 7074505.41067068465054, 50.521301533095539 ], [ -256221.69948176870821, 7074939.670869867317379, 50.522474879398942 ], [ -256221.69948176870821, 7074939.670869867317379, 50.522474879398942 ], [ -256123.760593701037578, 7074949.232795392163098, 50.521527701057494 ], [ -255841.899642804375617, 7075035.215794065967202, 50.518993222154677 ], [ -255705.744773493439425, 7075154.657923528924584, 50.518024235963821 ], [ -255316.393722322332906, 7074836.960423749871552, 50.513090207241476 ], [ -255053.646327983500669, 7075016.110459588468075, 50.511051162146032 ], [ -254879.264345491741551, 7075197.65977574326098, 50.509903068654239 ], [ -254434.977125607954804, 7074767.689162832684815, 50.504048584960401 ], [ -254172.229731365427142, 7074581.378293965943158, 50.500808164477348 ], [ -253959.631767735205358, 7074473.882449184544384, 50.498327772133052 ], [ -253723.155773327453062, 7074318.619481069967151, 50.495450940914452 ], [ -253606.821115215629106, 7074187.705433938652277, 50.493856129236519 ], [ -253472.830673675431171, 7073973.978417537175119, 50.491811884567142 ], [ -253436.684945161250653, 7073891.041608861647546, 50.49117714073509 ], [ -253381.972665914770914, 7073775.709459585137665, 50.490249834023416 ], [ -253364.862860182154691, 7073726.241888134740293, 50.489915700629354 ], [ -253333.804722289467463, 7073492.154446279630065, 50.488833931274712 ], [ -253314.702297711657593, 7073281.945617162622511, 50.487950152717531 ], [ -253383.965284918580437, 7073324.937322405166924, 50.488785273395479 ], [ -253379.189678803872084, 7073160.137050423771143, 50.488194379024208 ], [ -253400.685472526791273, 7073019.19241061154753, 50.487944979220629 ], [ -253448.463798041804694, 7072885.433884826488793, 50.487982286140323 ], [ -253663.443998893751996, 7072541.469690209254622, 50.488999856635928 ], [ -253816.319055744941579, 7072371.878212788142264, 50.489970495924354 ], [ -253911.864574766659644, 7072328.872964111156762, 50.490784932859242 ], [ -254067.121868680929765, 7072319.314195388928056, 50.492307353764772 ], [ -254124.451406490523368, 7072273.933583526872098, 50.492731326259673 ] ] ] ] } }
]
}
